ONEWEB-0012             
1 44057U 19010A   26170.68507807  .00000072  00000+0  15351-3 0  9994
2 44057  87.9095 228.2894 0001886  85.5935 274.5411 13.16595001351894
ONEWEB-0010             
1 44058U 19010B   26170.71040944  .00000004  00000+0 -23469-4 0  9999
2 44058  87.9098 228.2800 0001881 106.6219 253.5119 13.16594797351949
ONEWEB-0008             
1 44059U 19010C   26170.65973820  .00000020  00000+0  18607-4 0  9996
2 44059  87.9092 228.2857 0002330  97.0412 263.0984 13.16596103352056
ONEWEB-0007             
1 44060U 19010D   26170.77288122  .00000192  00000+0  47642-3 0  9995
2 44060  87.9001 258.7060 0001639 100.2607 259.8708 13.15548727351713
ONEWEB-0006             
1 44061U 19010E   26170.77682932  .00000177  00000+0  43722-3 0  9991
2 44061  87.9013 258.6697 0001861 103.8563 256.2775 13.15549027351763
ONEWEB-0011             
1 44062U 19010F   26170.74514131 -.00000045  00000+0 -15436-3 0  9991
2 44062  87.9014 258.6857 0002134 104.9302 255.2065 13.15547623351750
ONEWEB-0013             
1 45131U 20008A   26170.69159421 -.00000499  00000+0 -14869-2 0  9990
2 45131  87.8514  52.3202 0002147  53.4407 306.6917 13.09455188306397
ONEWEB-0017             
1 45132U 20008B   26170.67224421 -.00004392  00000+0 -12622-1 0  9992
2 45132  87.8833  35.7740 0001588  84.5759 275.5549 13.10390406308274
ONEWEB-0020             
1 45133U 20008C   26170.64210127  .00000664  00000+0  18641-2 0  9992
2 45133  87.8830  35.7781 0001766  83.6066 276.5262 13.10480336308664
ONEWEB-0021             
1 45134U 20008D   26170.65717473  .00000043  00000+0  87835-4 0  9994
2 45134  87.8826  35.7914 0001695  81.3995 278.7325 13.10426382308974
ONEWEB-0023             
1 45136U 20008F   26170.66804974 -.00000190  00000+0 -58012-3 0  9999
2 45136  87.8838  35.7713 0001901  79.2979 280.8363 13.10388633308404
ONEWEB-0024             
1 45137U 20008G   26170.64052538 -.00000306  00000+0 -91066-3 0  9994
2 45137  87.8838  35.7692 0001759  84.2234 275.9094 13.10495531308561
ONEWEB-0025             
1 45138U 20008H   26170.71660454 -.00000581  00000+0 -16967-2 0  9996
2 45138  87.8839  35.7439 0002243  90.4043 269.7342 13.10492935308908
ONEWEB-0026             
1 45139U 20008J   26170.60004875 -.00000370  00000+0 -10808-2 0  9998
2 45139  87.8882  20.5879 0001812  91.0200 269.1136 13.11414230311429
ONEWEB-0028             
1 45140U 20008K   26170.65176994  .00000488  00000+0  13403-2 0  9999
2 45140  87.8881  20.5855 0001858  70.4726 289.6602 13.11414654308946
ONEWEB-0032             
1 45141U 20008L   26170.67404926 -.00000774  00000+0 -22531-2 0  9993
2 45141  87.8835  35.7751 0002025  68.7420 291.3923 13.10366222308624
ONEWEB-0033             
1 45142U 20008M   26170.64876562 -.00000775  00000+0 -22530-2 0  9990
2 45142  87.8827  35.7870 0001670 100.2566 259.8750 13.10461561308535
ONEWEB-0035             
1 45143U 20008N   26170.89810978  .00000550  00000+0  15399-2 0  9991
2 45143  87.8830  35.7306 0001808  86.1983 273.9351 13.10383117308299
ONEWEB-0036             
1 45144U 20008P   26170.64490748 -.00000591  00000+0 -17391-2 0  9995
2 45144  87.8843  35.7934 0001919  78.2180 281.9162 13.09979332308685
ONEWEB-0038             
1 45145U 20008Q   26170.61035790 -.00000606  00000+0 -17465-2 0  9994
2 45145  87.8899  20.5944 0000190  41.6108 318.5034 13.11416378310647
ONEWEB-0039             
1 45146U 20008R   26170.65215844  .00001338  00000+0  37917-2 0  9994
2 45146  87.8835  35.7758 0001848  65.0267 295.1052 13.10450725308488
ONEWEB-0040             
1 45147U 20008S   26170.64544239 -.00000473  00000+0 -13903-2 0  9997
2 45147  87.8827  35.7914 0002216  95.7836 264.3544 13.10476128308182
ONEWEB-0043             
1 45149U 20008U   26170.64709406 -.00000619  00000+0 -18076-2 0  9996
2 45149  87.8833  35.7763 0001912  65.2999 294.8328 13.10466868308501
ONEWEB-0044             
1 45150U 20008V   26170.67558539 -.00000867  00000+0 -25194-2 0  9994
2 45150  87.8845  35.7716 0001856  77.7794 282.3541 13.10360344308806
ONEWEB-0045             
1 45151U 20008W   26170.60513629 -.00000417  00000+0 -12128-2 0  9993
2 45151  87.8895  20.5783 0001763  82.6661 277.4668 13.11415208310723
ONEWEB-0047             
1 45152U 20008X   26170.89781856 -.00000223  00000+0 -67549-3 0  9997
2 45152  87.8840  35.7268 0001612  87.1115 273.0196 13.10385435308550
ONEWEB-0048             
1 45153U 20008Y   26170.66388368 -.00000069  00000+0 -23369-3 0  9994
2 45153  87.8828  35.7947 0001721  83.8728 276.2595 13.10398643308132
ONEWEB-0049             
1 45154U 20008Z   26170.66707668 -.00000281  00000+0 -84201-3 0  9991
2 45154  87.8830  35.7831 0002207  80.5498 279.5879 13.10391682308357
ONEWEB-0051             
1 45155U 20008AA  26170.60344564 -.00000362  00000+0 -10574-2 0  9999
2 45155  87.8886  20.5861 0001837  85.8742 274.2596 13.11416951311408
ONEWEB-0052             
1 45156U 20008AB  26170.68747119  .00000638  00000+0  17919-2 0  9995
2 45156  87.8835  35.7647 0002236  80.7275 279.4105 13.10303757308263
